{"type": "FeatureCollection", "features": [ {"type": "Feature", "properties": {"norad_id": 44543, "name": "BEIDOU-3 M23 (C45)", "group": "beidou", "lat": -9.36486907990214, "lon": 15.52440340091453, "alt_km": 21546.269871210985, "timestamp": "2025-12-20T07:33:51.078465+00:00", "meta": {"OBJECT_NAME": "BEIDOU-3 M23 (C45)", "OBJECT_ID": "2019-061B", "EPOCH": "2025-12-19T04:54:38.810304", "MEAN_MOTION": 1.86227724, "ECCENTRICITY": 0.0006055, "INCLINATION": 54.3992, "RA_OF_ASC_NODE": 188.7663, "ARG_OF_PERICENTER": 24.9207, "MEAN_ANOMALY": 142.055, "EPHEMERIS_TYPE": 0, "CLASSIFICATION_TYPE": "U", "NORAD_CAT_ID": 44543, "ELEMENT_SET_NO": 999, "REV_AT_EPOCH": 4244, "BSTAR": 0, "MEAN_MOTION_DOT": 1.04e-06, "MEAN_MOTION_DDOT": 0}, "tle": {"line1": "1 44543U 19061B   25353.20461586  .00000104  00000+0  00000+0 0  9990", "line2": "2 44543  54.3992 188.7663 0006055  24.9207 142.0550  1.86227724 42443"}}, "geometry": {"type": "Point", "coordinates": [15.52440340091453, -9.36486907990214]}}, {"type": "Feature", "properties": {"norad_id": 44709, "name": "BEIDOU-3 IGSO-3 (C40)", "group": "beidou", "lat": 25.745503528159, "lon": -57.58239262451017, "alt_km": 35969.09515236956, "timestamp": "2025-12-20T07:33:51.078478+00:00", "meta": {"OBJECT_NAME": "BEIDOU-3 IGSO-3 (C40)", "OBJECT_ID": "2019-073A", "EPOCH": "2025-11-20T07:11:22.740000", "MEAN_MOTION": 1.00250097, "ECCENTRICITY": 0.0044538, "INCLINATION": 55.163, "RA_OF_ASC_NODE": 283.159, "ARG_OF_PERICENTER": 191.5856, "MEAN_ANOMALY": 168.2409, "EPHEMERIS_TYPE": 0, "CLASSIFICATION_TYPE": "U", "NORAD_CAT_ID": 44709, "ELEMENT_SET_NO": 999, "REV_AT_EPOCH": 2236, "BSTAR": 0, "MEAN_MOTION_DOT": -2.06e-06, "MEAN_MOTION_DDOT": 0}, "tle": {"line1": "1 44709U 19073A   25324.29956875 -.00000206  00000+0  00000+0 0  9998", "line2": "2 44709  55.1630 283.1590 0044538 191.5856 168.2409  1.00250097 22360"}}, "geometry": {"type": "Point", "coordinates": [-57.58239262451017, 25.745503528159]}}, {"type": "Feature", "properties": {"norad_id": 44793, "name": "BEIDOU-3 M22 (C44)", "group": "beidou", "lat": 20.828994364729144, "lon": -37.92509209223508, "alt_km": 21508.62227950288, "timestamp": "2025-12-20T07:33:51.078494+00:00", "meta": {"OBJECT_NAME": "BEIDOU-3 M22 (C44)", "OBJECT_ID": "2019-078A", "EPOCH": "2025-12-19T04:51:35.344224", "MEAN_MOTION": 1.86232161, "ECCENTRICITY": 0.0006038, "INCLINATION": 54.1023, "RA_OF_ASC_NODE": 306.1592, "ARG_OF_PERICENTER": 24.3104, "MEAN_ANOMALY": 335.7082, "EPHEMERIS_TYPE": 0, "CLASSIFICATION_TYPE": "U", "NORAD_CAT_ID": 44793, "ELEMENT_SET_NO": 999, "REV_AT_EPOCH": 4129, "BSTAR": 0, "MEAN_MOTION_DOT": -7.7e-07, "MEAN_MOTION_DDOT": 0}, "tle": {"line1": "1 44793U 19078A   25353.20249241 -.00000077  00000+0  00000+0 0  9997", "line2": "2 44793  54.1023 306.1592 0006038  24.3104 335.7082  1.86232161 41295"}}, "geometry": {"type": "Point", "coordinates": [-37.92509209223508, 20.828994364729144]}}, {"type": "Feature", "properties": {"norad_id": 44794, "name": "BEIDOU-3 M21 (C43)", "group": "beidou", "lat": -47.93512916247396, "lon": -107.31569327045224, "alt_km": 21531.43318908266, "timestamp": "2025-12-20T07:33:51.078505+00:00", "meta": {"OBJECT_NAME": "BEIDOU-3 M21 (C43)", "OBJECT_ID": "2019-078B", "EPOCH": "2025-12-16T15:43:55.727904", "MEAN_MOTION": 1.86227668, "ECCENTRICITY": 0.00041169, "INCLINATION": 54.078, "RA_OF_ASC_NODE": 306.2132, "ARG_OF_PERICENTER": 11.942, "MEAN_ANOMALY": 348.0544, "EPHEMERIS_TYPE": 0, "CLASSIFICATION_TYPE": "U", "NORAD_CAT_ID": 44794, "ELEMENT_SET_NO": 999, "REV_AT_EPOCH": 4125, "BSTAR": 0, "MEAN_MOTION_DOT": -9.5e-07, "MEAN_MOTION_DDOT": 0}, "tle": {"line1": "1 44794U 19078B   25350.65550611 -.00000095  00000+0  00000+0 0  9990", "line2": "2 44794  54.0780 306.2132 0004116  11.9420 348.0544  1.86227668 41256"}}, "geometry": {"type": "Point", "coordinates": [-107.31569327045224, -47.93512916247396]}}, {"type": "Feature", "properties": {"norad_id": 44864, "name": "BEIDOU-3 M19 (C41)", "group": "beidou", "lat": 40.12512260924569, "lon": -145.2930277374736, "alt_km": 21569.526142965144, "timestamp": "2025-12-20T07:33:51.078517+00:00", "meta": {"OBJECT_NAME": "BEIDOU-3 M19 (C41)", "OBJECT_ID": "2019-090A", "EPOCH": "2025-12-19T16:54:49.288032", "MEAN_MOTION": 1.86231654, "ECCENTRICITY": 0.001828, "INCLINATION": 56.3986, "RA_OF_ASC_NODE": 68.7306, "ARG_OF_PERICENTER": 284.9962, "MEAN_ANOMALY": 155.1499, "EPHEMERIS_TYPE": 0, "CLASSIFICATION_TYPE": "U", "NORAD_CAT_ID": 44864, "ELEMENT_SET_NO": 999, "REV_AT_EPOCH": 4089, "BSTAR": 0, "MEAN_MOTION_DOT": -5e-07, "MEAN_MOTION_DDOT": 0}, "tle": {"line1": "1 44864U 19090A   25353.70473713 -.00000050  00000+0  00000+0 0  9999", "line2": "2 44864  56.3986  68.7306 0018280 284.9962 155.1499  1.86231654 40895"}}, "geometry": {"type": "Point", "coordinates": [-145.2930277374736, 40.12512260924569]}}, {"type": "Feature", "properties": {"norad_id": 44865, "name": "BEIDOU-3 M20 (C42)", "group": "beidou", "lat": -31.515354218755604, "lon": -87.22078184371169, "alt_km": 21523.184532841937, "timestamp": "2025-12-20T07:33:51.078528+00:00", "meta": {"OBJECT_NAME": "BEIDOU-3 M20 (C42)", "OBJECT_ID": "2019-090B", "EPOCH": "2025-12-19T13:23:47.716224", "MEAN_MOTION": 1.86231656, "ECCENTRICITY": 0.0015458, "INCLINATION": 56.4001, "RA_OF_ASC_NODE": 68.7697, "ARG_OF_PERICENTER": 297.1258, "MEAN_ANOMALY": 134.3818, "EPHEMERIS_TYPE": 0, "CLASSIFICATION_TYPE": "U", "NORAD_CAT_ID": 44865, "ELEMENT_SET_NO": 999, "REV_AT_EPOCH": 4087, "BSTAR": 0, "MEAN_MOTION_DOT": -5.2e-07, "MEAN_MOTION_DDOT": 0}, "tle": {"line1": "1 44865U 19090B   25353.55819116 -.00000052  00000+0  00000+0 0  9996", "line2": "2 44865  56.4001  68.7697 0015458 297.1258 134.3818  1.86231656 40870"}}, "geometry": {"type": "Point", "coordinates": [-87.22078184371169, -31.515354218755604]}}, {"type": "Feature", "properties": {"norad_id": 45344, "name": "BEIDOU-3 G2 (C60)", "group": "beidou", "lat": -2.169134271339712, "lon": -77.38606919245964, "alt_km": 35777.23342683435, "timestamp": "2025-12-20T07:33:51.078540+00:00", "meta": {"OBJECT_NAME": "BEIDOU-3 G2 (C60)", "OBJECT_ID": "2020-017A", "EPOCH": "2025-12-19T13:38:45.370752", "MEAN_MOTION": 1.00273166, "ECCENTRICITY": 0.0002079, "INCLINATION": 2.5096, "RA_OF_ASC_NODE": 44.0024, "ARG_OF_PERICENTER": 233.0917, "MEAN_ANOMALY": 96.0359, "EPHEMERIS_TYPE": 0, "CLASSIFICATION_TYPE": "U", "NORAD_CAT_ID": 45344, "ELEMENT_SET_NO": 999, "REV_AT_EPOCH": 2145, "BSTAR": 0, "MEAN_MOTION_DOT": -1.18e-06, "MEAN_MOTION_DDOT": 0}, "tle": {"line1": "1 45344U 20017A   25353.56858068 -.00000118  00000+0  00000+0 0  9993", "line2": "2 45344   2.5096  44.0024 0002079 233.0917  96.0359  1.00273166 21451"}}, "geometry": {"type": "Point", "coordinates": [-77.38606919245964, -2.169134271339712]}}, {"type": "Feature", "properties": {"norad_id": 45807, "name": "BEIDOU-3 G3 (C61)", "group": "beidou", "lat": -1.8612100249317614, "lon": -46.89440742828663, "alt_km": 35774.42973613137, "timestamp": "2025-12-20T07:33:51.078551+00:00", "meta": {"OBJECT_NAME": "BEIDOU-3 G3 (C61)", "OBJECT_ID": "2020-040A", "EPOCH": "2025-12-19T15:57:04.317984", "MEAN_MOTION": 1.0027087, "ECCENTRICITY": 0.00064381, "INCLINATION": 2.0073, "RA_OF_ASC_NODE": 66.6426, "ARG_OF_PERICENTER": 309.3483, "MEAN_ANOMALY": 62.3662, "EPHEMERIS_TYPE": 0, "CLASSIFICATION_TYPE": "U", "NORAD_CAT_ID": 45807, "ELEMENT_SET_NO": 999, "REV_AT_EPOCH": 2027, "BSTAR": 0, "MEAN_MOTION_DOT": -3.31e-06, "MEAN_MOTION_DDOT": 0}, "tle": {"line1": "1 45807U 20040A   25353.66463331 -.00000331  00000+0  00000+0 0  9996", "line2": "2 45807   2.0073  66.6426 0006438 309.3483  62.3662  1.00270870 20270"}}, "geometry": {"type": "Point", "coordinates": [-46.89440742828663, -1.8612100249317614]}}, {"type": "Feature", "properties": {"norad_id": 56564, "name": "BEIDOU-3 G4 (C62)", "group": "beidou", "lat": 0.696748555209021, "lon": 2.652741107835097, "alt_km": 35797.17720871163, "timestamp": "2025-12-20T07:33:51.078563+00:00", "meta": {"OBJECT_NAME": "BEIDOU-3 G4 (C62)", "OBJECT_ID": "2023-066A", "EPOCH": "2025-12-19T19:36:37.155744", "MEAN_MOTION": 1.00271581, "ECCENTRICITY": 0.00027289, "INCLINATION": 0.8001, "RA_OF_ASC_NODE": 302.5987, "ARG_OF_PERICENTER": 226.497, "MEAN_ANOMALY": 13.7807, "EPHEMERIS_TYPE": 0, "CLASSIFICATION_TYPE": "U", "NORAD_CAT_ID": 56564, "ELEMENT_SET_NO": 999, "REV_AT_EPOCH": 959, "BSTAR": 0, "MEAN_MOTION_DOT": -8.6e-07, "MEAN_MOTION_DDOT": 0}, "tle": {"line1": "1 56564U 23066A   25353.81709671 -.00000086  00000+0  00000+0 0  9993", "line2": "2 56564   0.8001 302.5987 0002728 226.4970  13.7807  1.00271581  9594"}}, "geometry": {"type": "Point", "coordinates": [2.652741107835097, 0.696748555209021]}}, {"type": "Feature", "properties": {"norad_id": 58654, "name": "BEIDOU-3 M28 (C50)", "group": "beidou", "lat": -46.291729901055085, "lon": -65.91885323468625, "alt_km": 21527.13894936332, "timestamp": "2025-12-20T07:33:51.078575+00:00", "meta": {"OBJECT_NAME": "BEIDOU-3 M28 (C50)", "OBJECT_ID": "2023-207A", "EPOCH": "2025-12-18T08:16:11.764704", "MEAN_MOTION": 1.86229821, "ECCENTRICITY": 0.00026501, "INCLINATION": 55.5892, "RA_OF_ASC_NODE": 68.4116, "ARG_OF_PERICENTER": 272.4264, "MEAN_ANOMALY": 87.5728, "EPHEMERIS_TYPE": 0, "CLASSIFICATION_TYPE": "U", "NORAD_CAT_ID": 58654, "ELEMENT_SET_NO": 999, "REV_AT_EPOCH": 1347, "BSTAR": 0, "MEAN_MOTION_DOT": -6.6e-07, "MEAN_MOTION_DDOT": 0}, "tle": {"line1": "1 58654U 23207A   25352.34458061 -.00000066  00000+0  00000+0 0  9991", "line2": "2 58654  55.5892  68.4116 0002650 272.4264  87.5728  1.86229821 13471"}}, "geometry": {"type": "Point", "coordinates": [-65.91885323468625, -46.291729901055085]}}]}